{"type": "FeatureCollection", "features": [{"type": "Feature", "properties": {"norad_id": 25590, "name": "COSMOS 2361", "group": "musson", "lat": 70.23000381766373, "lon": 10.619844987647712, "alt_km": 998.4827449337918, "timestamp": "2025-12-04T03:47:54.813059+00:00", "meta": {"OBJECT_NAME": "COSMOS 2361", "OBJECT_ID": "1998-076A", "EPOCH": "2025-12-03T14:03:29.613024", "MEAN_MOTION": 13.73215969, "ECCENTRICITY": 0.0030156, "INCLINATION": 82.9342, "RA_OF_ASC_NODE": 350.8575, "ARG_OF_PERICENTER": 292.187, "MEAN_ANOMALY": 190.4432, "EPHEMERIS_TYPE": 0, "CLASSIFICATION_TYPE": "U", "NORAD_CAT_ID": 25590, "ELEMENT_SET_NO": 999, "REV_AT_EPOCH": 34985, "BSTAR": 8.9609e-05, "MEAN_MOTION_DOT": 9.8e-07, "MEAN_MOTION_DDOT": 0}, "tle": {"line1": "1 25590U 98076A   25337.58575941  .00000098  00000+0  89609-4 0  9997", "line2": "2 25590  82.9342 350.8575 0030156 292.1870 190.4432 13.73215969349856"}}, "geometry": {"type": "Point", "coordinates": [10.619844987647712, 70.23000381766373]}}, {"type": "Feature", "properties": {"norad_id": 26818, "name": "COSMOS 2378", "group": "musson", "lat": 63.971685378257746, "lon": 171.36235308949787, "alt_km": 988.1347856796974, "timestamp": "2025-12-04T03:47:54.813080+00:00", "meta": {"OBJECT_NAME": "COSMOS 2378", "OBJECT_ID": "2001-023A", "EPOCH": "2025-12-03T17:25:20.803872", "MEAN_MOTION": 13.74140779, "ECCENTRICITY": 0.0031935, "INCLINATION": 82.928, "RA_OF_ASC_NODE": 6.4088, "ARG_OF_PERICENTER": 230.6051, "MEAN_ANOMALY": 267.2647, "EPHEMERIS_TYPE": 0, "CLASSIFICATION_TYPE": "U", "NORAD_CAT_ID": 26818, "ELEMENT_SET_NO": 999, "REV_AT_EPOCH": 22799, "BSTAR": 7.6593e-05, "MEAN_MOTION_DOT": 8.7e-07, "MEAN_MOTION_DDOT": 0}, "tle": {"line1": "1 26818U 01023A   25337.72593523  .00000087  00000+0  76593-4 0  9995", "line2": "2 26818  82.9280   6.4088 0031935 230.6051 267.2647 13.74140779227996"}}, "geometry": {"type": "Point", "coordinates": [171.36235308949787, 63.971685378257746]}}, {"type": "Feature", "properties": {"norad_id": 27436, "name": "COSMOS 2389", "group": "musson", "lat": -68.0825919478443, "lon": -64.57541247692333, "alt_km": 1019.7453804446595, "timestamp": "2025-12-04T03:47:54.813093+00:00", "meta": {"OBJECT_NAME": "COSMOS 2389", "OBJECT_ID": "2002-026A", "EPOCH": "2025-12-03T16:44:39.159744", "MEAN_MOTION": 13.75153162, "ECCENTRICITY": 0.0047775, "INCLINATION": 82.9494, "RA_OF_ASC_NODE": 313.6792, "ARG_OF_PERICENTER": 85.3008, "MEAN_ANOMALY": 86.8683, "EPHEMERIS_TYPE": 0, "CLASSIFICATION_TYPE": "U", "NORAD_CAT_ID": 27436, "ELEMENT_SET_NO": 999, "REV_AT_EPOCH": 18024, "BSTAR": 6.8133e-05, "MEAN_MOTION_DOT": 8.1e-07, "MEAN_MOTION_DDOT": 0}, "tle": {"line1": "1 27436U 02026A   25337.69767546  .00000081  00000+0  68133-4 0  9995", "line2": "2 27436  82.9494 313.6792 0047775  85.3008  86.8683 13.75153162180243"}}, "geometry": {"type": "Point", "coordinates": [-64.57541247692333, -68.0825919478443]}}, {"type": "Feature", "properties": {"norad_id": 27818, "name": "COSMOS 2398", "group": "musson", "lat": -30.74183961443781, "lon": -85.19957710119957, "alt_km": 1019.9714649298576, "timestamp": "2025-12-04T03:47:54.813105+00:00", "meta": {"OBJECT_NAME": "COSMOS 2398", "OBJECT_ID": "2003-023A", "EPOCH": "2025-12-03T09:17:02.662368", "MEAN_MOTION": 13.7238429, "ECCENTRICITY": 0.0032224, "INCLINATION": 82.9475, "RA_OF_ASC_NODE": 279.591, "ARG_OF_PERICENTER": 136.9059, "MEAN_ANOMALY": 343.0817, "EPHEMERIS_TYPE": 0, "CLASSIFICATION_TYPE": "U", "NORAD_CAT_ID": 27818, "ELEMENT_SET_NO": 999, "REV_AT_EPOCH": 12688, "BSTAR": 4.677e-05, "MEAN_MOTION_DOT": 5.8e-07, "MEAN_MOTION_DDOT": 0}, "tle": {"line1": "1 27818U 03023A   25337.38683637  .00000058  00000+0  46770-4 0  9998", "line2": "2 27818  82.9475 279.5910 0032224 136.9059 343.0817 13.72384290126882"}}, "geometry": {"type": "Point", "coordinates": [-85.19957710119957, -30.74183961443781]}}, {"type": "Feature", "properties": {"norad_id": 28380, "name": "COSMOS 2407", "group": "musson", "lat": 42.9948126611344, "lon": -134.13984489267997, "alt_km": 948.830964866238, "timestamp": "2025-12-04T03:47:54.813115+00:00", "meta": {"OBJECT_NAME": "COSMOS 2407", "OBJECT_ID": "2004-028A", "EPOCH": "2025-12-03T19:12:08.773056", "MEAN_MOTION": 13.76312141, "ECCENTRICITY": 0.0040525, "INCLINATION": 82.9613, "RA_OF_ASC_NODE": 219.5109, "ARG_OF_PERICENTER": 79.0926, "MEAN_ANOMALY": 351.011, "EPHEMERIS_TYPE": 0, "CLASSIFICATION_TYPE": "U", "NORAD_CAT_ID": 28380, "ELEMENT_SET_NO": 999, "REV_AT_EPOCH": 7300, "BSTAR": 9.9857e-05, "MEAN_MOTION_DOT": 1.14e-06, "MEAN_MOTION_DDOT": 0}, "tle": {"line1": "1 28380U 04028A   25337.80010154  .00000114  00000+0  99857-4 0  9991", "line2": "2 28380  82.9613 219.5109 0040525  79.0926 351.0110 13.76312141 73008"}}, "geometry": {"type": "Point", "coordinates": [-134.13984489267997, 42.9948126611344]}}, {"type": "Feature", "properties": {"norad_id": 28521, "name": "COSMOS 2414", "group": "musson", "lat": -49.6703522191593, "lon": -177.23309204345847, "alt_km": 967.3368043622513, "timestamp": "2025-12-04T03:47:54.813126+00:00", "meta": {"OBJECT_NAME": "COSMOS 2414", "OBJECT_ID": "2005-002A", "EPOCH": "2025-12-03T17:39:37.668096", "MEAN_MOTION": 13.87901131, "ECCENTRICITY": 0.0040343, "INCLINATION": 82.9499, "RA_OF_ASC_NODE": 191.468, "ARG_OF_PERICENTER": 164.9748, "MEAN_ANOMALY": 195.2625, "EPHEMERIS_TYPE": 0, "CLASSIFICATION_TYPE": "U", "NORAD_CAT_ID": 28521, "ELEMENT_SET_NO": 999, "REV_AT_EPOCH": 5670, "BSTAR": 9.3001e-05, "MEAN_MOTION_DOT": 1.27e-06, "MEAN_MOTION_DDOT": 0}, "tle": {"line1": "1 28521U 05002A   25337.73585264  .00000127  00000+0  93001-4 0  9991", "line2": "2 28521  82.9499 191.4680 0040343 164.9748 195.2625 13.87901131 56705"}}, "geometry": {"type": "Point", "coordinates": [-177.23309204345847, -49.6703522191593]}}, {"type": "Feature", "properties": {"norad_id": 32052, "name": "COSMOS 2429", "group": "musson", "lat": 61.63236812802578, "lon": 156.4463579180879, "alt_km": 958.9092680890208, "timestamp": "2025-12-04T03:47:54.813136+00:00", "meta": {"OBJECT_NAME": "COSMOS 2429", "OBJECT_ID": "2007-038A", "EPOCH": "2025-12-03T11:30:59.967936", "MEAN_MOTION": 13.75148024, "ECCENTRICITY": 0.0039622, "INCLINATION": 82.9805, "RA_OF_ASC_NODE": 350.1357, "ARG_OF_PERICENTER": 63.0529, "MEAN_ANOMALY": 297.4666, "EPHEMERIS_TYPE": 0, "CLASSIFICATION_TYPE": "U", "NORAD_CAT_ID": 32052, "ELEMENT_SET_NO": 999, "REV_AT_EPOCH": 91475, "BSTAR": 7.316e-05, "MEAN_MOTION_DOT": 8.6e-07, "MEAN_MOTION_DDOT": 0}, "tle": {"line1": "1 32052U 07038A   25337.47986074  .00000086  00000+0  73160-4 0  9999", "line2": "2 32052  82.9805 350.1357 0039622  63.0529 297.4666 13.75148024914758"}}, "geometry": {"type": "Point", "coordinates": [156.4463579180879, 61.63236812802578]}}, {"type": "Feature", "properties": {"norad_id": 35635, "name": "COSMOS 2454", "group": "musson", "lat": -61.96847881350557, "lon": 161.72099387996474, "alt_km": 950.0695044995209, "timestamp": "2025-12-04T03:47:54.813147+00:00", "meta": {"OBJECT_NAME": "COSMOS 2454", "OBJECT_ID": "2009-039A", "EPOCH": "2025-12-03T12:49:56.586144", "MEAN_MOTION": 13.89926796, "ECCENTRICITY": 0.0020482, "INCLINATION": 82.9556, "RA_OF_ASC_NODE": 175.6227, "ARG_OF_PERICENTER": 98.3487, "MEAN_ANOMALY": 320.4945, "EPHEMERIS_TYPE": 0, "CLASSIFICATION_TYPE": "U", "NORAD_CAT_ID": 35635, "ELEMENT_SET_NO": 999, "REV_AT_EPOCH": 83022, "BSTAR": 7.4731e-05, "MEAN_MOTION_DOT": 1.08e-06, "MEAN_MOTION_DDOT": 0}, "tle": {"line1": "1 35635U 09039A   25337.53468271  .00000108  00000+0  74731-4 0  9993", "line2": "2 35635  82.9556 175.6227 0020482  98.3487 320.4945 13.89926796830226"}}, "geometry": {"type": "Point", "coordinates": [161.72099387996474, -61.96847881350557]}}, {"type": "Feature", "properties": {"norad_id": 36519, "name": "COSMOS 2463", "group": "musson", "lat": -1.3442622127383586, "lon": -146.81545402010784, "alt_km": 1013.8169044888418, "timestamp": "2025-12-04T03:47:54.813157+00:00", "meta": {"OBJECT_NAME": "COSMOS 2463", "OBJECT_ID": "2010-017A", "EPOCH": "2025-12-03T16:58:14.708352", "MEAN_MOTION": 13.71647895, "ECCENTRICITY": 0.0035099, "INCLINATION": 82.9621, "RA_OF_ASC_NODE": 33.3498, "ARG_OF_PERICENTER": 313.9615, "MEAN_ANOMALY": 161.0406, "EPHEMERIS_TYPE": 0, "CLASSIFICATION_TYPE": "U", "NORAD_CAT_ID": 36519, "ELEMENT_SET_NO": 999, "REV_AT_EPOCH": 78113, "BSTAR": 8.2612e-05, "MEAN_MOTION_DOT": 9e-07, "MEAN_MOTION_DDOT": 0}, "tle": {"line1": "1 36519U 10017A   25337.70711468  .00000090  00000+0  82612-4 0  9998", "line2": "2 36519  82.9621  33.3498 0035099 313.9615 161.0406 13.71647895781137"}}, "geometry": {"type": "Point", "coordinates": [-146.81545402010784, -1.3442622127383586]}}]}